GLOBALSTAR M094         
1 39074U 13005C   24297.97075604 -.00000086  00000+0  98194-4 0  9993
2 39074  51.9947 181.3265 0001142  84.5680 275.5317 12.62264160542545
GLOBALSTAR M078         
1 39076U 13005E   24297.79878672 -.00000082  00000+0  12331-3 0  9995
2 39076  51.9881 315.0093 0001191  33.7016 326.3926 12.62276522540063
GLOBALSTAR M095         
1 39077U 13005F   24297.74644384 -.00000079  00000+0  13687-3 0  9993
2 39077  51.9806 312.4858 0000960  61.1135 298.9828 12.62266648539916
GLOBALSTAR M087         
1 52888U 22064A   24297.93020961 -.00000096  00000+0  61846-4 0  9993
2 52888  51.9737 119.4533 0008940 336.4485  23.6005 13.37590801114756
